satname,norad_id,inclination_deg,eccentricity,mean_motion_rev_per_day,perigee_km,apogee_km,l1,l2
STARLINK-1008,44714,53.1486,0.0005733,15.54349637,400.15558924052766,407.9320377612885,1 44714U 19074B   26203.85026071  .00043430  00000+0  65493-3 0  9996,2 44714  53.1486 257.4051 0005733 347.6199  12.4671 15.54349637369758
STARLINK-1012,44718,53.1532,0.0006055,15.54669722,399.0068299174545,407.2189235181595,1 44718U 19074F   26203.90241220  .00033521  00000+0  50186-3 0  9994,2 44718  53.1532 257.3464 0006055 350.4988   9.5908 15.54669722369757
STARLINK-1017,44723,53.0453,8.86e-05,15.34612174,461.4666444464092,462.6787296029506,1 44723U 19074L   26203.59465954  .00030080  00000+0  89176-3 0  9995,2 44723  53.0453 263.7268 0000886  74.0426 286.0673 15.34612174369612
STARLINK-1020,44725,53.154,0.0005311,15.60756549,381.87835318149337,389.06265707343937,1 44725U 19074N   26203.63352324  .00066630  00000+0  78560-3 0  9993,2 44725  53.1540 280.8739 0005311 322.6141  37.4503 15.60756549369387
STARLINK-1036,44741,53.0397,0.0004236,15.78280675,332.4679974426099,338.15563127813493,1 44741U 19074AE  26203.29108934  .00079445  00000+0  45231-3 0  9996,2 44741  53.0397 245.6485 0004236  27.2706 332.8536 15.78280675369830
STARLINK-1039,44744,53.0558,0.0001136,15.31583154,470.3102572181042,471.8664012129011,1 44744U 19074AH  26203.71106589  .00029233  00000+0  95349-3 0  9995,2 44744  53.0558 309.5752 0001136 251.4157 108.6720 15.31583154368982
STARLINK-1042,44747,53.0415,0.0001451,15.56101247,397.9699724869906,399.9366841002611,1 44747U 19074AL  26203.27373482  .00027377  00000+0  39067-3 0  9999,2 44747  53.0415 165.8551 0001451  58.9768 301.1385 15.56101247370981
STARLINK-1043,44748,53.0459,0.0003233,15.67831807,362.92669393532833,367.2868753664834,1 44748U 19074AM  26203.52631903  .00046385  00000+0  41630-3 0  9992,2 44748  53.0459 257.8185 0003233  22.1036 338.0119 15.67831807369690
STARLINK-1046,44751,53.0451,0.0003829,15.60996941,382.1865752588674,387.36561410677496,1 44751U 19074AQ  26203.63380023  .00042380  00000+0  49888-3 0  9996,2 44751  53.0451 281.1779 0003829 289.6198  70.4401 15.60996941369375
STARLINK-1047,44752,53.0682,0.000179,15.35839511,457.2043071713679,459.65179746009744,1 44752U 19074AR  26203.81294063  .00034667  00000+0  98615-3 0  9996,2 44752  53.0682 233.3488 0001790 314.2366  45.8489 15.35839511370088
STARLINK-1048,44753,53.0414,7.71e-05,15.71862329,353.05562281386756,354.09365274841366,1 44753U 19074AS  26203.48042374  .00061136  00000+0  46226-3 0  9998,2 44753  53.0414 228.2592 0000771 135.7672 224.3407 15.71862329370093
STARLINK-1063,44768,53.1532,0.0004494,15.54461,400.6721220789641,406.7676550504066,1 44768U 19074BH  26203.79774215  .00063965  00000+0  95508-3 0  9993,2 44768  53.1532 298.6900 0004494 331.3449  28.7315 15.54461000369181
STARLINK-1067,44771,53.0394,0.0007767,15.85694175,309.1727510014616,319.5688926518869,1 44771U 19074BL  26203.34033091  .00136855  00000+0  54541-3 0  9999,2 44771  53.0394 257.0023 0007767   5.6751 354.4358 15.85694175369684
STARLINK-1068,44772,53.0371,0.0006687,15.82832503,317.95417219292267,326.91551697787145,1 44772U 19074BM  26203.91225240  .00121309  00000+0  55573-3 0  9996,2 44772  53.0371 228.4910 0006687  16.8890 343.2353 15.82832503370123
STARLINK-1114,44927,53.0399,0.0001789,15.74389735,345.1653082741732,347.5713362784845,1 44927U 20001P   26203.91628543  .00073511  00000+0  49745-3 0  9998,2 44927  53.0399  28.3182 0001789 277.5930  82.4885 15.74389735361231
STARLINK-1123,44930,53.1397,0.0005418,15.64706439,370.4248156940803,377.7415214687553,1 44930U 20001S   26203.89638513  .00046986  00000+0  47772-3 0  9991,2 44930  53.1397  58.9050 0005418 108.1506 252.0100 15.64706439360820
STARLINK-1094,44941,53.1498,0.000463,15.60105191,384.2205304297195,390.48537412552923,1 44941U 20001AD  26203.91899439  .00083259  00000+0  10029-2 0  9990,2 44941  53.1498  35.3067 0004630 131.9837 228.1572 15.60105191361166
STARLINK-1122,44949,53.1512,0.0004507,15.59607019,385.7437152424409,391.8434264590069,1 44949U 20001AM  26203.92998740  .00083531  00000+0  10254-2 0  9997,2 44949  53.1512  35.8716 0004507 119.9071 240.2390 15.59607019361152
STARLINK-1080,44961,53.0451,0.0001254,15.72288978,351.51278820626067,353.2007960493256,1 44961U 20001AZ  26203.81577389  .00077510  00000+0  57327-3 0  9994,2 44961  53.0451 349.4309 0001254 268.5431  91.5443 15.72288978361774
STARLINK-1090,44968,53.1472,0.0003625,15.5554546,398.1102274310897,403.02478819925545,1 44968U 20001BG  26203.90229109  .00065362  00000+0  93774-3 0  9993,2 44968  53.1472  24.9852 0003625 126.3497 233.7849 15.55545460361302
STARLINK-1132,45044,53.1483,0.0001727,15.67778819,364.09413872899586,366.4233076117789,1 45044U 20006A   26204.00002315 -.00086552  00000+0 -77642-3 0  9996,2 45044  53.1483 323.6402 0001727  78.8988 122.5019 15.67778819  5844
STARLINK-1131,45047,53.154,5.79e-05,15.59838392,387.73262228469594,388.51615535352266,1 45047U 20006D   26203.43303586  .00043166  00000+0  53111-3 0  9996,2 45047  53.1540   0.3354 0000579  25.4594 334.6448 15.59838392357386
STARLINK-1134,45048,53.0223,0.0005099,15.63766619,373.34394005484774,380.2326128517734,1 45048U 20006E   26203.56261863  .00044575  00000+0  47072-3 0  9996,2 45048  53.0223 306.9462 0005099 254.4612 105.5838 15.63766619358113
STARLINK-1156,45054,53.1567,0.0002552,15.38649359,448.359759355807,451.8448927078143,1 45054U 20006L   26203.73455594  .00039724  00000+0  10300-2 0  9991,2 45054  53.1567  10.5595 0002552 146.2816 213.8351 15.38649359357263
STARLINK-1166,45060,53.043,0.0001729,15.6972946,358.5060969097176,360.8360309382215,1 45060U 20006S   26203.92100971  .00065502  00000+0  54074-3 0  9995,2 45060  53.0430 337.2349 0001729 346.7099  13.3872 15.69729460357727
STARLINK-1169,45061,53.1547,0.0003475,15.42338192,436.841486066206,441.57954258866357,1 45061U 20006T   26203.47198278  .00046584  00000+0  10669-2 0  9993,2 45061  53.1547   9.2497 0003475 112.6135 247.5239 15.42338192357265
STARLINK-1171,45062,53.0362,0.0003502,15.81490077,323.8782322794268,328.57396819483256,1 45062U 20006U   26203.75645616  .00103974  00000+0  50909-3 0  9997,2 45062  53.0362 299.6630 0003502   3.3489 356.7555 15.81490077358239
STARLINK-1133,45064,53.1561,0.000236,15.38537153,448.8227695991536,452.04585525861967,1 45064U 20006W   26203.77308426  .00043390  00000+0  11277-2 0  9995,2 45064  53.1561 347.1830 0002360 136.2914 223.8278 15.38537153357609
STARLINK-1167,45071,53.1567,0.0002204,15.41359762,440.5920572312534,443.5984156010645,1 45071U 20006AD  26203.69916821  .00052210  00000+0  12334-2 0  9994,2 45071  53.1567 345.7544 0002204  56.6871 303.4345 15.41359762357616
STARLINK-1168,45072,53.1572,0.0001918,15.39096899,447.46917835905424,450.0879831758375,1 45072U 20006AE  26203.74146620  .00040447  00000+0  10333-2 0  9999,2 45072  53.1572 347.4039 0001918 136.0339 224.0818 15.39096899357590
STARLINK-1172,45074,53.1538,0.0001759,15.42363134,437.937858765079,440.33617576435154,1 45074U 20006AG  26203.69179788  .00045030  00000+0  10311-2 0  9995,2 45074  53.1538 344.7885 0001759  73.1539 286.9660 15.42363134357628
STARLINK-1153,45080,53.1563,0.0003424,15.41377503,439.707673553954,444.3781327516326,1 45080U 20006AN  26203.81058843  .00048901  00000+0  11556-2 0  9996,2 45080  53.1563 345.1319 0003424  73.2829 286.8552 15.41377503357638
STARLINK-1151,45081,53.0407,0.0013113,16.09044843,240.77406018259717,258.15560875367373,1 45081U 20006AP  26203.53089149  .00605377  19939-3  66009-3 0  9994,2 45081  53.0407 283.5301 0013113 349.8023  10.2742 16.09044843358437
STARLINK-1185,45087,53.1569,8.9e-05,15.50857292,413.6172489910514,414.82628885192025,1 45087U 20006AV  26203.36814608  .00054944  00000+0  93643-3 0  9994,2 45087  53.1569 324.4810 0000890 205.3481 154.7485 15.50857292357886
STARLINK-1183,45088,53.157,0.0001178,15.38418692,449.980402433147,451.5892964208715,1 45088U 20006AW  26203.73530139  .00037674  00000+0  98505-3 0  9993,2 45088  53.1570 332.2064 0001178 174.7982 185.3034 15.38418692357807
STARLINK-1152,45096,53.0305,0.0004471,15.54088079,401.77211405787693,407.83742058621647,1 45096U 20006BE  26202.58069928  .00055287  00000+0  83861-3 0  9996,2 45096  53.0305 287.3235 0004471 314.3025  45.7617 15.54088079358302
STARLINK-1184,45098,53.0511,0.0003602,15.16134701,515.0520321951099,520.0196749188126,1 45098U 20006BG  26203.78979830  .00020327  00000+0  10546-2 0  9999,2 45098  53.0511 352.3769 0003602 172.2420 187.8629 15.16134701357495
STARLINK-1193,45100,53.0446,0.0002821,15.72587183,349.60747737639304,353.4043419060117,1 45100U 20006BJ  26203.51568176  .00065705  00000+0  48116-3 0  9995,2 45100  53.0446 288.6353 0002821  18.9936 341.1186 15.72587183358364
STARLINK-1143,45179,53.0209,0.0012033,16.28902435,187.58099106835834,203.40108430385408,1 45179U 20012B   26203.83365179  .02450811  12067-4  56858-3 0  9992,2 45179  53.0209   7.3839 0012033 297.4387  62.5430 16.28902435357348
STARLINK-1202,45183,53.1527,0.0004331,15.38106504,448.7508517365877,454.66686421876693,1 45183U 20012F   26203.81660679  .00034665  00000+0  91659-3 0  9998,2 45183  53.1527 128.6355 0004331  49.2667 310.8713 15.38106504355684
STARLINK-1216,45185,53.1542,0.0001585,15.42863649,436.58225462706105,438.7428630872182,1 45185U 20012H   26204.00002315  .00137697  00000+0  30446-2 0  9994,2 45185  53.1542 127.4154 0001585  75.5284  87.0230 15.42863649  5833
STARLINK-1225,45187,53.1542,0.0005732,15.38720859,445.9769728988949,453.8046239670193,1 45187U 20012K   26203.78240537  .00047108  00000+0  12151-2 0  9990,2 45187  53.1542 128.9908 0005732  63.0067 297.1522 15.38720859355664
STARLINK-1230,45189,53.1536,0.0004589,15.38492961,447.4313839798542,453.69876674462193,1 45189U 20012M   26203.79759588  .00036418  00000+0  95018-3 0  9990,2 45189  53.1536 129.0292 0004589  60.3105 299.8356 15.38492961352895
